SPAWAR-CAL-R            
1 43776U 18099U   25206.37925356  .00001908  00000+0  14280-3 0  9994
2 43776  97.4870 252.8557 0022096  40.0681 320.2169 15.03716032362851
SPAWAR-CAL-OR           
1 43778U 18099W   25206.08319188  .00008836  00000+0  46275-3 0  9990
2 43778  97.4306 255.4786 0013796  26.8217 333.3727 15.15960605362972
SNUSAT-2                
1 43782U 18099AA  25206.38152939  .00006554  00000+0  35235-3 0  9996
2 43782  97.4567 260.3482 0011581   3.3248 356.8059 15.15157221363430
KAZSTSAT                
1 43783U 18099AB  25206.09088975  .00000503  00000+0  46315-4 0  9993
2 43783  97.4729 247.2223 0008431  64.9783 295.2315 14.98810131362295
SNUGLITE                
1 43784U 18099AC  25206.09948922  .00009792  00000+0  48120-3 0  9995
2 43784  97.4383 259.7272 0003370  24.9486 335.1910 15.18242350363546
ITASAT                  
1 43786U 18099AE  25206.10848032  .00006903  00000+0  38916-3 0  9993
2 43786  97.4536 259.4538 0015231  53.9591 306.3049 15.13401278363340
EAGLET-I                
1 43790U 18099AJ  25206.43120400  .00004616  00000+0  29242-3 0  9997
2 43790  97.4734 259.5713 0012733  38.6794 321.5345 15.09369824362982
ESEO                    
1 43792U 18099AL  25206.61490973  .00002381  00000+0  18226-3 0  9991
2 43792  97.4434 252.3899 0012467   8.8198 351.3244 15.02744998362732
CSIM-FD                 
1 43793U 18099AM  25206.75755603  .00571033  13473-3  15512-2 0  9992
2 43793  97.4711 288.6882 0005514 274.9819  85.0826 15.94171860364941
HAWK-B                  
1 43794U 18099AN  25206.09610143  .00003052  00000+0  16130-3 0  9996
2 43794  97.4435 257.9681 0029144   4.0292 356.1170 15.15881788363340
THEA                    
1 43796U 18099AQ  25206.42742915  .00010189  00000+0  44295-3 0  9990
2 43796  97.4913 270.1968 0009412   9.9400 350.2020 15.22431289362779
SKYSAT-C12              
1 43797U 18099AR  25206.34064153  .00010153  00000+0  27703-3 0  9999
2 43797  96.9634 239.6568 0003011 259.9504 100.1402 15.37608055371455
ASTROCAST 0.1           
1 43798U 18099AS  25206.45752470  .00015010  00000+0  52182-3 0  9994
2 43798  97.4821 274.2539 0006185 318.6316  41.4456 15.29809988364189
HAWK-C                  
1 43799U 18099AT  25206.71059318  .00007855  00000+0  40443-3 0  9990
2 43799  97.4404 258.5484 0027224 349.4191  10.6465 15.16358614363448
ICEYE-X2                
1 43800U 18099AU  25206.78300129  .00005473  00000+0  31756-3 0  9990
2 43800  97.4847 261.6246 0011084   2.4563 357.6720 15.12503802363398
SKYSAT-C13              
1 43802U 18099AW  25206.36808212  .00021371  00000+0  34618-3 0  9997
2 43802  96.9838 252.5411 0007095  19.5211 340.6313 15.52780910371674
JY1SAT (JO-97)          
1 43803U 18099AX  25206.43112498  .00010586  00000+0  47046-3 0  9995
2 43803  97.4636 265.1164 0006709 357.5809   2.5393 15.21684638363748
SUOMI-100               
1 43804U 18099AY  25206.38953696  .00008815  00000+0  42249-3 0  9995
2 43804  97.4700 264.2373 0011569 356.0627   4.0514 15.19095813363655
AL-FARABI 2             
1 43805U 18099AZ  25206.72459141  .00024384  00000+0  71010-3 0  9997
2 43805  97.4521 271.3274 0005005 320.4353  39.6524 15.35385533364256
EUCROPIS                
1 43807U 18099BB  25206.44749360  .00006987  00000+0  38228-3 0  9996
2 43807  97.4700 262.6096 0005789  10.5579 349.5773 15.14551226362908
POLAR SCOUT YUKON       
1 43808U 18099BC  25206.45711758  .00012518  00000+0  52503-3 0  9997
2 43808  97.5094 271.4275 0007261  55.0569 305.1349 15.23612192363530
CENTAURI-1              
1 43809U 18099BD  25206.61203823  .00005029  00000+0  29820-3 0  9990
2 43809  97.4731 260.4167 0016063  24.8881 335.3121 15.11700286363089
NEXTSAT-1               
1 43811U 18099BF  25206.61235423  .00003399  00000+0  23608-3 0  9990
2 43811  97.4558 255.3682 0013232  22.1952 337.9846 15.06128921362680
GLOBAL-2                
1 43812U 18099BG  25206.61457531  .00003847  00000+0  26823-3 0  9997
2 43812  97.4013 251.4082 0006169 182.7672 177.3523 15.05958119362712
FALCONSAT-6             
1 43815U 18099BK  25205.90486159  .00033729  00000+0  14084-2 0  9996
2 43815  97.4994 280.2726 0016104  22.7076  77.6097 15.23448427363837
SPACEBEE-7              
1 43816U 18099BL  25206.15829143  .00030265  00000+0  79280-3 0  9991
2 43816  97.4937 277.3077 0004247 311.4219  48.6660 15.38642462363805
EXCITE                  
1 43819U 18099BP  25206.61219708  .00003200  00000+0  23224-3 0  9991
2 43819  97.4442 252.8017 0019689  31.2109 329.0282 15.04437505362619
SEAHAWK-1               
1 43820U 18099BQ  25206.61250493  .00007094  00000+0  37505-3 0  9991
2 43820  97.4471 259.7298 0009782  19.9619 340.1994 15.15736980362943
GEO-KOMPSAT-2A          
1 43823U 18100A   25206.71364184 -.00000356  00000+0  00000+0 0  9992
2 43823   0.0213 143.5075 0002013 318.7296 226.5799  1.00272355 24387
GSAT-11                 
1 43824U 18100B   25206.35252296 -.00000089  00000+0  00000+0 0  9996
2 43824   0.0919 269.1382 0007725 190.5568  44.5023  1.00272150 24202
SAUDISAT 5A             
1 43831U 18102A   25206.78176953  .00005049  00000+0  21445-3 0  9998
2 43831  97.3556 269.7327 0010215 198.6806 161.4057 15.23468484365901
SAUDISAT 5B             
1 43833U 18102C   25206.74255227  .00004626  00000+0  19425-3 0  9993
2 43833  97.3639 272.1875 0010807 202.3186 157.7582 15.23895623366004
SHIELDS 1               
1 43850U 18104B   25206.49035207  .00032034  00000+0  34310-3 0  9994
2 43850  85.0140   4.1501 0004789 340.8204  19.2880 15.63673828368622
GSAT-7A                 
1 43864U 18105A   25206.63651339  .00000015  00000+0  00000+0 0  9995
2 43864   0.0923 267.6892 0001615 187.3032 140.4786  1.00271300 24176
COSMOS 2533             
1 43867U 18107A   25206.20908333 -.00000050  00000+0  00000+0 0  9992
2 43867   0.0303 115.2193 0001294   0.2524 332.9043  1.00268141 24156
HONGYUN 1               
1 43871U 18108A   25206.76193231  .00000003  00000+0  72652-4 0  9996
2 43871  99.7970 229.1318 0013512  91.4796 268.7886 13.50619042325017
NAVSTAR 77 (USA 289)    
1 43873U 18109A   25206.18089469 -.00000026  00000+0  00000+0 0  9991
2 43873  55.4840 105.0988 0033945 195.7920 336.1603  2.00572284 48511
TJS-3                   
1 43874U 18110A   25206.73451693  .00000044  00000+0  00000+0 0  9996
2 43874   1.7001  84.5316 0002074  29.2163 153.3446  1.00269220 24206
KANOPUS-V 5             
1 43876U 18111A   25206.73490068  .00002971  00000+0  12958-3 0  9998
2 43876  97.3744 113.4416 0001900  91.5401 268.6053 15.22931689363068
KANOPUS-V 6             
1 43877U 18111B   25206.74026432  .00004673  00000+0  15151-3 0  9999
2 43877  97.3781 118.1482 0001965  83.2347 276.9119 15.32484174363353
ISAT                    
1 43879U 18111D   25206.32295049  .00018498  00000+0  61168-3 0  9996
2 43879  97.5923 121.7660 0009712  49.1768 311.0313 15.31362800360690
UWE-4                   
1 43880U 18111E   25206.29721708  .00014782  00000+0  55887-3 0  9993
2 43880  97.5870 119.8879 0013285  56.9539 303.2974 15.26993035360606
D-STAR ONE (SPARROW)    
1 43881U 18111F   25206.33204678  .00019844  00000+0  62950-3 0  9994
2 43881  97.6076 124.8358 0008885  83.3496 276.8756 15.32690181360796
GRUS-1A                 
1 43890U 18111Q   25206.78683228  .00001281  00000+0  11341-3 0  9999
2 43890  97.4982  82.4432 0009342 169.5977 190.5441 14.97914988358820
YUNHAI-2 01A            
1 43909U 18112A   25206.78697996  .00000116  00000+0  10945-3 0  9993
2 43909  50.0124 349.5381 0000359 144.8573 215.2366 14.28813237344455
YUNHAI-2 01B            
1 43910U 18112B   25206.73590314  .00000075  00000+0  93052-4 0  9991
2 43910  50.0127  53.3481 0004845 154.4759 205.6396 14.28807447343561
YUNHAI-2 01C            
1 43911U 18112C   25206.75910443  .00000067  00000+0  90066-4 0  9996
2 43911  50.0131 292.7805 0000477  99.9022 260.1947 14.28789535345241
YUNHAI-2 01D            
1 43912U 18112D   25206.74069044  .00000057  00000+0  85932-4 0  9993
2 43912  50.0100 232.9664 0015928 278.1887  81.7221 14.28824320340906
YUNHAI-2 01E            
1 43913U 18112E   25206.48355291  .00000126  00000+0  11317-3 0  9999
2 43913  50.0079 113.4156 0005267 300.7824  59.2572 14.28804846342440
HONGYAN 1 (CHONGQING)   
1 43914U 18112F   25206.38919869 -.00000118  00000+0  19455-4 0  9990
2 43914  50.0094 359.0021 0006499 343.6564  16.4104 13.43800261322595
YUNHAI-2 01F            
1 43915U 18112G   25206.71644709  .00000085  00000+0  97299-4 0  9990
2 43915  50.0109 173.2526 0007380 263.9750  96.0324 14.28805999341800
ZHONGXING-2D            
1 43920U 19001A   25206.51205564 -.00000349  00000+0  00000+0 0  9997
2 43920   0.0320 184.2670 0001871  32.1477  41.3870  1.00270528 50805
IRIDIUM 180             
1 43922U 19002A   25206.34021528  .00000225  00000+0  73426-4 0  9996
2 43922  86.3998 130.2510 0002276  80.4795 279.6658 14.34216728342142
IRIDIUM 176             
1 43923U 19002B   25206.30228225  .00000876  00000+0  13500-3 0  9994
2 43923  86.6124 130.2563 0002101  72.3731 287.7716 14.72246170351154
IRIDIUM 168             
1 43924U 19002C   25206.33387652  .00000113  00000+0  33182-4 0  9991
2 43924  86.4001 130.3219 0002221  83.0068 277.1381 14.34217930342129
IRIDIUM 173             
1 43925U 19002D   25206.32119389  .00000198  00000+0  63469-4 0  9995
2 43925  86.3995 130.2293 0002249  80.3303 279.8147 14.34219402342107
IRIDIUM 169             
1 43926U 19002E   25206.40966876  .00000266  00000+0  80372-4 0  9994
2 43926  86.4276 161.7798 0001611  47.9151 312.2184 14.38606097343245
IRIDIUM 172             
1 43927U 19002F   25206.31484796  .00000006  00000+0 -48291-5 0  9999
2 43927  86.3997 130.2390 0002382  80.8783 279.2682 14.34219098342114
IRIDIUM 175             
1 43928U 19002G   25206.36528017  .00000779  00000+0  11962-3 0  9999
2 43928  86.1473  80.5658 0001538 104.8299 255.3088 14.72244462351151
